NORAD_CAT_ID,OBJECT_NAME,OBJECT_TYPE,EPOCH,MEAN_MOTION,ECCENTRICITY,INCLINATION,RA_OF_ASC_NODE,ARG_OF_PERICENTER,MEAN_ANOMALY,BSTAR,MEAN_MOTION_DOT,MEAN_MOTION_DDOT,TLE_LINE0,TLE_LINE1,TLE_LINE2,SEMIMAJOR_AXIS,PERIOD,APOGEE,PERIGEE,DECAYED
55422.0,STARLINK-5006,PAYLOAD,2024-04-25 20:31:18,14.98351979,0.0002401,70.0028,5.9868,266.3078,93.7807,-0.00059449,-7.183e-05,0.0,0 STARLINK-5006,1 55422U 23014AH  24116.85507060 -.00007183  00000-0 -59449-3 0  9998,2 55422  70.0028   5.9868 0002401 266.3078  93.7807 14.98351979 68343,6950.125,96.106,573.659,570.321,0.0
55422.0,STARLINK-5006,PAYLOAD,2024-04-25 22:07:26,14.9833285,0.0002717,70.0023,5.8176,263.2015,96.8835,0.00014125,1.593e-05,0.0,0 STARLINK-5006,1 55422U 23014AH  24116.92184021  .00001593  00000-0  14125-3 0  9993,2 55422  70.0023   5.8176 0002717 263.2015  96.8835 14.98332850 69293,6950.184,96.107,573.937,570.161,0.0
55422.0,STARLINK-5006,PAYLOAD,2024-04-26 02:55:50,14.98336167,0.000242,70.0011,5.3126,245.237,114.8538,0.00019253,2.205e-05,0.0,0 STARLINK-5006,1 55422U 23014AH  24117.12211776  .00002205  00000-0  19253-3 0  9992,2 55422  70.0011   5.3126 0002420 245.2370 114.8538 14.98336167 68380,6950.174,96.107,573.721,570.357,0.0
55422.0,STARLINK-5006,PAYLOAD,2024-04-26 09:20:23,14.98330477,0.0002627,70.0013,4.6389,259.3756,100.7107,9.8611e-05,1.084e-05,0.0,0 STARLINK-5006,1 55422U 23014AH  24117.38916146  .00001084  00000-0  98611-4 0  9993,2 55422  70.0013   4.6389 0002627 259.3756 100.7107 14.98330477 68427,6950.191,96.107,573.882,570.231,0.0
55422.0,STARLINK-5006,PAYLOAD,2024-04-26 22:09:28,14.98329305,0.0002591,70.0011,3.2917,265.8137,94.2725,0.00015053,1.704e-05,0.0,0 STARLINK-5006,1 55422U 23014AH  24117.92324079  .00001704  00000-0  15053-3 0  9998,2 55422  70.0011   3.2917 0002591 265.8137  94.2725 14.98329305 69446,6950.195,96.107,573.861,570.259,0.0
55422.0,STARLINK-5006,PAYLOAD,2024-04-27 09:22:24,14.9833591,0.0002504,70.001,2.1116,277.614,82.4735,4.0643e-05,3.92e-06,0.0,0 STARLINK-5006,1 55422U 23014AH  24118.39055834  .00000392  00000-0  40643-4 0  9996,2 55422  70.0010   2.1116 0002504 277.6140  82.4735 14.98335910 68575,6950.175,96.107,573.78,570.299,0.0
55422.0,STARLINK-5006,PAYLOAD,2024-04-27 20:35:21,14.98325411,0.0002567,70.0013,0.9378,262.4783,97.6084,-1.3124e-05,-2.49e-06,0.0,0 STARLINK-5006,1 55422U 23014AH  24118.85788517 -.00000249  00000-0 -13124-4 0  9995,2 55422  70.0013   0.9378 0002567 262.4783  97.6084 14.98325411 68646,6950.207,96.107,573.856,570.288,0.0
55422.0,STARLINK-5006,PAYLOAD,2024-04-27 22:11:29,14.98324607,0.0002526,70.0013,0.7682,266.4473,93.6397,-1.1956e-05,-2.36e-06,0.0,0 STARLINK-5006,1 55422U 23014AH  24118.92464581 -.00000236  00000-0 -11956-4 0  9992,2 55422  70.0013   0.7682 0002526 266.4473  93.6397 14.98324607 69591,6950.21,96.107,573.83,570.319,0.0
55422.0,STARLINK-5006,PAYLOAD,2024-04-28 20:37:21,14.98332516,0.0002781,70.0007,358.4115,268.9221,91.162,9.879e-05,1.086e-05,0.0,0 STARLINK-5006,1 55422U 23014AH  24119.85927714  .00001086  00000-0  98790-4 0  9990,2 55422  70.0007 358.4115 0002781 268.9221  91.1620 14.98332516 68790,6950.185,96.107,573.983,570.117,0.0
55422.0,STARLINK-5006,PAYLOAD,2024-04-28 22:13:29,14.98339777,0.0002798,70.0,358.2419,262.1692,97.915,0.00010374,1.145e-05,0.0,0 STARLINK-5006,1 55422U 23014AH  24119.92603164  .00001145  00000-0  10374-3 0  9995,2 55422  70.0000 358.2419 0002798 262.1692  97.9150 14.98339777 69748,6950.163,96.106,573.972,570.083,0.0
55422.0,STARLINK-5006,PAYLOAD,2024-04-29 01:25:45,14.98340206,0.0002778,70.0001,357.9053,262.0626,98.0218,0.0001173,1.307e-05,0.0,0 STARLINK-5006,1 55422U 23014AH  24120.05955074  .00001307  00000-0  11730-3 0  9998,2 55422  70.0001 357.9053 0002778 262.0626  98.0218 14.98340206 68827,6950.161,96.106,573.957,570.096,0.0
55422.0,STARLINK-5006,PAYLOAD,2024-04-29 09:26:25,14.98340292,0.0002944,69.9998,357.0612,269.4314,90.6508,6.3617e-06,-1.7e-07,0.0,0 STARLINK-5006,1 55422U 23014AH  24120.39335127 -.00000017  00000-0  63617-5 0  9997,2 55422  69.9998 357.0612 0002944 269.4314  90.6508 14.98340292 69816,6950.161,96.106,574.072,569.98,0.0
55422.0,STARLINK-5006,PAYLOAD,2024-04-29 20:39:22,14.98324061,0.0002939,69.9995,355.8828,271.4256,88.6567,0.00013622,1.532e-05,0.0,0 STARLINK-5006,1 55422U 23014AH  24120.86067910  .00001532  00000-0  13622-3 0  9992,2 55422  69.9995 355.8828 0002939 271.4256  88.6567 14.98324061 68941,6950.211,96.107,574.119,570.034,0.0
55422.0,STARLINK-5006,PAYLOAD,2024-04-29 22:15:30,14.98325303,0.000293,69.9996,355.7147,268.2511,91.8312,7.7475e-05,8.31e-06,0.0,0 STARLINK-5006,1 55422U 23014AH  24120.92743954  .00000831  00000-0  77475-4 0  9996,2 55422  69.9996 355.7147 0002930 268.2511  91.8312 14.98325303 69893,6950.207,96.107,574.109,570.036,0.0
55422.0,STARLINK-5006,PAYLOAD,2024-04-30 09:28:26,14.98330384,0.0002875,70.0,354.5368,271.908,88.175,6.6753e-05,7.04e-06,0.0,0 STARLINK-5006,1 55422U 23014AH  24121.39475657  .00000704  00000-0  66753-4 0  9996,2 55422  70.0000 354.5368 0002875 271.9080  88.1750 14.98330384 69962,6950.192,96.107,574.055,570.059,0.0
55422.0,STARLINK-5006,PAYLOAD,2024-04-30 20:41:23,14.98333608,0.0003016,69.9999,353.3586,271.2114,88.8699,2.2035e-05,1.7e-06,0.0,0 STARLINK-5006,1 55422U 23014AH  24121.86207422  .00000170  00000-0  22035-4 0  9993,2 55422  69.9999 353.3586 0003016 271.2114  88.8699 14.98333608 69099,6950.182,96.107,574.143,569.951,0.0
55422.0,STARLINK-5006,PAYLOAD,2024-04-30 22:17:31,14.98339231,0.0002985,69.9997,353.1911,270.5466,89.5351,-2.1835e-05,-3.54e-06,0.0,0 STARLINK-5006,1 55422U 23014AH  24121.92883145 -.00000354  00000-0 -21835-4 0  9995,2 55422  69.9997 353.1911 0002985 270.5466  89.5351 14.98339231 70041,6950.164,96.106,574.104,569.955,0.0
55422.0,STARLINK-5006,PAYLOAD,2024-05-01 01:29:47,14.98339623,0.0002985,69.9997,352.8544,270.6656,89.4161,-1.6628e-05,-2.91e-06,0.0,0 STARLINK-5006,1 55422U 23014AH  24122.06235029 -.00000291  00000-0 -16628-4 0  9997,2 55422  69.9997 352.8544 0002985 270.6656  89.4161 14.98339623 70066,6950.163,96.106,574.103,569.954,0.0
55422.0,STARLINK-5006,PAYLOAD,2024-05-01 22:19:31,14.98334327,0.0002986,69.9996,350.666,271.6845,88.3971,8.2736e-05,8.94e-06,0.0,0 STARLINK-5006,1 55422U 23014AH  24122.93022754  .00000894  00000-0  82736-4 0  9992,2 55422  69.9996 350.6660 0002986 271.6845  88.3971 14.98334327 70199,6950.18,96.107,574.12,569.969,0.0
55422.0,STARLINK-5006,PAYLOAD,2024-05-02 01:31:47,14.98335685,0.0002978,69.9996,350.3293,271.8136,88.2682,9.5111e-05,1.042e-05,0.0,0 STARLINK-5006,1 55422U 23014AH  24123.06374604  .00001042  00000-0  95111-4 0  9998,2 55422  69.9996 350.3293 0002978 271.8136  88.2682 14.98335685 69277,6950.175,96.107,574.11,569.971,0.0
55422.0,STARLINK-5006,PAYLOAD,2024-05-02 07:56:20,14.98330259,0.0002939,69.9999,349.6558,272.4171,87.6652,6.24e-06,-1.9e-07,0.0,0 STARLINK-5006,1 55422U 23014AH  24123.33079123 -.00000019  00000-0  62400-5 0  9996,2 55422  69.9999 349.6558 0002939 272.4171  87.6652 14.98330259 69315,6950.192,96.107,574.1,570.014,0.0
55422.0,STARLINK-5006,PAYLOAD,2024-05-02 14:20:52,14.98328608,0.0002877,69.9999,348.9828,271.9423,88.1407,-4.6743e-05,-6.51e-06,0.0,0 STARLINK-5006,1 55422U 23014AH  24123.59783381 -.00000651  00000-0 -46743-4 0  9996,2 55422  69.9999 348.9828 0002877 271.9423  88.1407 14.98328608 70290,6950.197,96.107,574.062,570.063,0.0
55422.0,STARLINK-5006,PAYLOAD,2024-05-03 07:58:21,14.9833298,0.0002837,69.9995,347.1314,270.1595,89.9239,5.8712e-06,-2.3e-07,0.0,0 STARLINK-5006,1 55422U 23014AH  24124.33218925 -.00000023  00000-0  58712-5 0  9998,2 55422  69.9995 347.1314 0002837 270.1595  89.9239 14.98332980 69461,6950.184,96.107,574.02,570.077,0.0
55422.0,STARLINK-5006,PAYLOAD,2024-05-03 22:23:33,14.9837068,0.000263,69.9992,345.6163,262.8661,97.2199,-0.00057534,-6.958e-05,0.0,0 STARLINK-5006,1 55422U 23014AH  24124.93302303 -.00006958  00000-0 -57534-3 0  9991,2 55422  69.9992 345.6163 0002630 262.8661  97.2199 14.98370680 70497,6950.067,96.104,573.76,570.104,0.0
55422.0,STARLINK-5006,PAYLOAD,2024-05-04 08:00:21,14.98330673,0.0002843,69.9994,344.6061,268.9122,91.1711,1.7485e-05,1.16e-06,0.0,0 STARLINK-5006,1 55422U 23014AH  24125.33358784  .00000116  00000-0  17485-4 0  9990,2 55422  69.9994 344.6061 0002843 268.9122  91.1711 14.98330673 69613,6950.191,96.107,574.032,570.08,0.0
55422.0,STARLINK-5006,PAYLOAD,2024-05-04 20:49:27,14.98323648,0.0002936,69.9991,343.259,268.6833,91.399,1.4344e-06,-7.6e-07,0.0,0 STARLINK-5006,1 55422U 23014AH  24125.86767384 -.00000076  00000-0  14344-5 0  9996,2 55422  69.9991 343.2590 0002936 268.6833  91.3990 14.98323648 69694,6950.213,96.107,574.118,570.037,0.0
55422.0,STARLINK-5006,PAYLOAD,2024-05-05 14:26:55,14.98332023,0.0002941,69.9993,341.4073,268.7999,91.2823,1.9924e-05,1.45e-06,0.0,0 STARLINK-5006,1 55422U 23014AH  24126.60202932  .00000145  00000-0  19924-4 0  9996,2 55422  69.9993 341.4073 0002941 268.7999  91.2823 14.98332023 70741,6950.187,96.107,574.096,570.008,0.0
55422.0,STARLINK-5006,PAYLOAD,2024-05-05 20:51:27,14.98332857,0.0002987,69.9991,340.7332,267.9292,92.1525,1.9604e-05,1.41e-06,0.0,0 STARLINK-5006,1 55422U 23014AH  24126.86906823  .00000141  00000-0  19604-4 0  9995,2 55422  69.9991 340.7332 0002987 267.9292  92.1525 14.98332857 69849,6950.184,96.107,574.125,569.973,0.0
55422.0,STARLINK-5006,PAYLOAD,2024-05-05 22:27:35,14.98332713,0.000299,69.9991,340.5649,267.9486,92.133,1.8037e-05,1.22e-06,0.0,0 STARLINK-5006,1 55422U 23014AH  24126.93582828  .00000122  00000-0  18037-4 0  9996,2 55422  69.9991 340.5649 0002990 267.9486  92.1330 14.98332713 70798,6950.185,96.107,574.128,569.971,0.0
55422.0,STARLINK-5006,PAYLOAD,2024-05-06 08:04:23,14.98338847,0.0003018,69.9992,339.5551,267.9046,92.1767,0.00010888,1.207e-05,0.0,0 STARLINK-5006,1 55422U 23014AH  24127.33638084  .00001207  00000-0  10888-3 0  9997,2 55422  69.9992 339.5551 0003018 267.9046  92.1767 14.98338847 69913,6950.166,96.106,574.128,569.933,0.0
